{"type": "FeatureCollection", "features": [ {"type": "Feature", "properties": {"norad_id": 66654, "name": "JACK E", "group": "last-30-days", "lat": -19.747121107921664, "lon": 84.46516727660293, "alt_km": 595.6388465653745, "timestamp": "2025-12-05T22:40:47.343397+00:00", "meta": {"OBJECT_NAME": "JACK E", "OBJECT_ID": "2025-274E", "EPOCH": "2025-12-05T07:17:59.445600", "MEAN_MOTION": 14.92018904, "ECCENTRICITY": 0.00118187, "INCLINATION": 97.7389, "RA_OF_ASC_NODE": 266.634, "ARG_OF_PERICENTER": 283.6965, "MEAN_ANOMALY": 76.2938, "EPHEMERIS_TYPE": 0, "CLASSIFICATION_TYPE": "U", "NORAD_CAT_ID": 66654, "ELEMENT_SET_NO": 999, "REV_AT_EPOCH": 129, "BSTAR": 0.00053100408, "MEAN_MOTION_DOT": 5.337e-05, "MEAN_MOTION_DDOT": 0}, "tle": {"line1": "1 66654U 25274E   25339.30416025  .00005337  00000+0  53100-3 0  9999", "line2": "2 66654  97.7389 266.6340 0011818 283.6965  76.2938 14.92018904  1292"}}, "geometry": {"type": "Point", "coordinates": [84.46516727660293, -19.747121107921664]}}, {"type": "Feature", "properties": {"norad_id": 66655, "name": "2025-274F", "group": "last-30-days", "lat": -25.092098348640697, "lon": 83.61475506027821, "alt_km": 598.0080098215649, "timestamp": "2025-12-05T22:40:47.343407+00:00", "meta": {"OBJECT_NAME": "2025-274F", "OBJECT_ID": "2025-274F", "EPOCH": "2025-12-05T07:16:42.301632", "MEAN_MOTION": 14.92235438, "ECCENTRICITY": 0.00076843, "INCLINATION": 97.7362, "RA_OF_ASC_NODE": 266.6343, "ARG_OF_PERICENTER": 312.6423, "MEAN_ANOMALY": 47.4148, "EPHEMERIS_TYPE": 0, "CLASSIFICATION_TYPE": "U", "NORAD_CAT_ID": 66655, "ELEMENT_SET_NO": 999, "REV_AT_EPOCH": 129, "BSTAR": 0.00039759604, "MEAN_MOTION_DOT": 4.001e-05, "MEAN_MOTION_DDOT": 0}, "tle": {"line1": "1 66655U 25274F   25339.30326738  .00004001  00000+0  39760-3 0  9994", "line2": "2 66655  97.7362 266.6343 0007684 312.6423  47.4148 14.92235438  1291"}}, "geometry": {"type": "Point", "coordinates": [83.61475506027821, -25.092098348640697]}}, {"type": "Feature", "properties": {"norad_id": 66656, "name": "2025-274G", "group": "last-30-days", "lat": -25.682701025604914, "lon": 83.516378792479, "alt_km": 594.8473605188283, "timestamp": "2025-12-05T22:40:47.343419+00:00", "meta": {"OBJECT_NAME": "2025-274G", "OBJECT_ID": "2025-274G", "EPOCH": "2025-12-05T05:39:55.882080", "MEAN_MOTION": 14.92203569, "ECCENTRICITY": 0.00124059, "INCLINATION": 97.7386, "RA_OF_ASC_NODE": 266.5695, "ARG_OF_PERICENTER": 285.6584, "MEAN_ANOMALY": 74.3266, "EPHEMERIS_TYPE": 0, "CLASSIFICATION_TYPE": "U", "NORAD_CAT_ID": 66656, "ELEMENT_SET_NO": 999, "REV_AT_EPOCH": 128, "BSTAR": 0.00061629871, "MEAN_MOTION_DOT": 6.234e-05, "MEAN_MOTION_DDOT": 0}, "tle": {"line1": "1 66656U 25274G   25339.23606345  .00006234  00000+0  61630-3 0  9993", "line2": "2 66656  97.7386 266.5695 0012405 285.6584  74.3266 14.92203569  1280"}}, "geometry": {"type": "Point", "coordinates": [83.516378792479, -25.682701025604914]}}, {"type": "Feature", "properties": {"norad_id": 66657, "name": "SPIRONE", "group": "last-30-days", "lat": -31.57429697541951, "lon": 82.47360464356044, "alt_km": 596.6707440633045, "timestamp": "2025-12-05T22:40:47.343429+00:00", "meta": {"OBJECT_NAME": "SPIRONE", "OBJECT_ID": "2025-274H", "EPOCH": "2025-12-05T07:15:00.922464", "MEAN_MOTION": 14.92384278, "ECCENTRICITY": 0.00110607, "INCLINATION": 97.7387, "RA_OF_ASC_NODE": 266.636, "ARG_OF_PERICENTER": 304.7015, "MEAN_ANOMALY": 55.3162, "EPHEMERIS_TYPE": 0, "CLASSIFICATION_TYPE": "U", "NORAD_CAT_ID": 66657, "ELEMENT_SET_NO": 999, "REV_AT_EPOCH": 129, "BSTAR": 0.00060861124, "MEAN_MOTION_DOT": 6.182e-05, "MEAN_MOTION_DDOT": 0}, "tle": {"line1": "1 66657U 25274H   25339.30209401  .00006182  00000+0  60861-3 0  9991", "line2": "2 66657  97.7387 266.6360 0011060 304.7015  55.3162 14.92384278  1292"}}, "geometry": {"type": "Point", "coordinates": [82.47360464356044, -31.57429697541951]}}, {"type": "Feature", "properties": {"norad_id": 66658, "name": "2025-274J", "group": "last-30-days", "lat": -37.32450204226149, "lon": 81.31868724163671, "alt_km": 596.0436490897891, "timestamp": "2025-12-05T22:40:47.343439+00:00", "meta": {"OBJECT_NAME": "2025-274J", "OBJECT_ID": "2025-274J", "EPOCH": "2025-12-05T07:13:33.345696", "MEAN_MOTION": 14.92557518, "ECCENTRICITY": 0.00116162, "INCLINATION": 97.7389, "RA_OF_ASC_NODE": 266.6374, "ARG_OF_PERICENTER": 307.5835, "MEAN_ANOMALY": 52.4328, "EPHEMERIS_TYPE": 0, "CLASSIFICATION_TYPE": "U", "NORAD_CAT_ID": 66658, "ELEMENT_SET_NO": 999, "REV_AT_EPOCH": 129, "BSTAR": 0.0005786355, "MEAN_MOTION_DOT": 5.901e-05, "MEAN_MOTION_DDOT": 0}, "tle": {"line1": "1 66658U 25274J   25339.30108039  .00005901  00000+0  57864-3 0  9994", "line2": "2 66658  97.7389 266.6374 0011616 307.5835  52.4328 14.92557518  1299"}}, "geometry": {"type": "Point", "coordinates": [81.31868724163671, -37.32450204226149]}}, {"type": "Feature", "properties": {"norad_id": 66659, "name": "JACK K", "group": "last-30-days", "lat": -43.42349982226263, "lon": 79.87853131487347, "alt_km": 594.9976904303758, "timestamp": "2025-12-05T22:40:47.343450+00:00", "meta": {"OBJECT_NAME": "JACK K", "OBJECT_ID": "2025-274K", "EPOCH": "2025-12-04T08:40:38.250048", "MEAN_MOTION": 14.92734551, "ECCENTRICITY": 0.0012354, "INCLINATION": 97.7386, "RA_OF_ASC_NODE": 265.7163, "ARG_OF_PERICENTER": 312.2173, "MEAN_ANOMALY": 47.7997, "EPHEMERIS_TYPE": 0, "CLASSIFICATION_TYPE": "U", "NORAD_CAT_ID": 66659, "ELEMENT_SET_NO": 999, "REV_AT_EPOCH": 115, "BSTAR": 0.00069302, "MEAN_MOTION_DOT": 7.113e-05, "MEAN_MOTION_DDOT": 0}, "tle": {"line1": "1 66659U 25274K   25338.36155382  .00007113  00000+0  69302-3 0  9990", "line2": "2 66659  97.7386 265.7163 0012354 312.2173  47.7997 14.92734551  1159"}}, "geometry": {"type": "Point", "coordinates": [79.87853131487347, -43.42349982226263]}}, {"type": "Feature", "properties": {"norad_id": 66660, "name": "K-HERO", "group": "last-30-days", "lat": -48.27060209139043, "lon": 78.50497291827098, "alt_km": 593.9258023486755, "timestamp": "2025-12-05T22:40:47.343461+00:00", "meta": {"OBJECT_NAME": "K-HERO", "OBJECT_ID": "2025-274L", "EPOCH": "2025-12-05T07:10:46.013088", "MEAN_MOTION": 14.92891926, "ECCENTRICITY": 0.00129657, "INCLINATION": 97.7394, "RA_OF_ASC_NODE": 266.6407, "ARG_OF_PERICENTER": 309.2025, "MEAN_ANOMALY": 50.8042, "EPHEMERIS_TYPE": 0, "CLASSIFICATION_TYPE": "U", "NORAD_CAT_ID": 66660, "ELEMENT_SET_NO": 999, "REV_AT_EPOCH": 129, "BSTAR": 0.00053497482, "MEAN_MOTION_DOT": 5.499e-05, "MEAN_MOTION_DDOT": 0}, "tle": {"line1": "1 66660U 25274L   25339.29914367  .00005499  00000+0  53497-3 0  9994", "line2": "2 66660  97.7394 266.6407 0012965 309.2025  50.8042 14.92891926  1292"}}, "geometry": {"type": "Point", "coordinates": [78.50497291827098, -48.27060209139043]}}, {"type": "Feature", "properties": {"norad_id": 66661, "name": "SNUGLITE-III", "group": "last-30-days", "lat": -53.245708263920164, "lon": 76.78600294031054, "alt_km": 592.8268975894871, "timestamp": "2025-12-05T22:40:47.343471+00:00", "meta": {"OBJECT_NAME": "SNUGLITE-III", "OBJECT_ID": "2025-274M", "EPOCH": "2025-12-05T07:09:29.397024", "MEAN_MOTION": 14.93041442, "ECCENTRICITY": 0.00136355, "INCLINATION": 97.7392, "RA_OF_ASC_NODE": 266.6414, "ARG_OF_PERICENTER": 310.0704, "MEAN_ANOMALY": 49.9319, "EPHEMERIS_TYPE": 0, "CLASSIFICATION_TYPE": "U", "NORAD_CAT_ID": 66661, "ELEMENT_SET_NO": 999, "REV_AT_EPOCH": 129, "BSTAR": 0.00051687706, "MEAN_MOTION_DOT": 5.332e-05, "MEAN_MOTION_DDOT": 0}, "tle": {"line1": "1 66661U 25274M   25339.29825691  .00005332  00000+0  51688-3 0  9992", "line2": "2 66661  97.7392 266.6414 0013635 310.0704  49.9319 14.93041442  1295"}}, "geometry": {"type": "Point", "coordinates": [76.78600294031054, -53.245708263920164]}}, {"type": "Feature", "properties": {"norad_id": 66662, "name": "2025-274N", "group": "last-30-days", "lat": -55.336174764318336, "lon": 75.93667317376331, "alt_km": 592.1618963107576, "timestamp": "2025-12-05T22:40:47.343484+00:00", "meta": {"OBJECT_NAME": "2025-274N", "OBJECT_ID": "2025-274N", "EPOCH": "2025-12-05T07:08:56.610816", "MEAN_MOTION": 14.9309478, "ECCENTRICITY": 0.00140544, "INCLINATION": 97.739, "RA_OF_ASC_NODE": 266.6419, "ARG_OF_PERICENTER": 309.3021, "MEAN_ANOMALY": 50.6951, "EPHEMERIS_TYPE": 0, "CLASSIFICATION_TYPE": "U", "NORAD_CAT_ID": 66662, "ELEMENT_SET_NO": 999, "REV_AT_EPOCH": 129, "BSTAR": 0.00033972357, "MEAN_MOTION_DOT": 3.489e-05, "MEAN_MOTION_DDOT": 0}, "tle": {"line1": "1 66662U 25274N   25339.29787744  .00003489  00000+0  33972-3 0  9996", "line2": "2 66662  97.7390 266.6419 0014054 309.3021  50.6951 14.93094780  1292"}}, "geometry": {"type": "Point", "coordinates": [75.93667317376331, -55.336174764318336]}}, {"type": "Feature", "properties": {"norad_id": 66663, "name": "KSLV-II R/B", "group": "last-30-days", "lat": 17.95738585415876, "lon": -95.17593971937382, "alt_km": 549.2331502865554, "timestamp": "2025-12-05T22:40:47.343495+00:00", "meta": {"OBJECT_NAME": "KSLV-II R/B", "OBJECT_ID": "2025-274P", "EPOCH": "2025-12-04T19:19:56.440704", "MEAN_MOTION": 14.9720989, "ECCENTRICITY": 0.00474064, "INCLINATION": 97.74, "RA_OF_ASC_NODE": 266.2222, "ARG_OF_PERICENTER": 346.0223, "MEAN_ANOMALY": 13.9683, "EPHEMERIS_TYPE": 0, "CLASSIFICATION_TYPE": "U", "NORAD_CAT_ID": 66663, "ELEMENT_SET_NO": 999, "REV_AT_EPOCH": 122, "BSTAR": 0.00017772252, "MEAN_MOTION_DOT": 2.041e-05, "MEAN_MOTION_DDOT": 0}, "tle": {"line1": "1 66663U 25274P   25338.80551436  .00002041  00000+0  17772-3 0  9993", "line2": "2 66663  97.7400 266.2222 0047406 346.0223  13.9683 14.97209890  1223"}}, "geometry": {"type": "Point", "coordinates": [-95.17593971937382, 17.95738585415876]}}]}